[{"OBJECT_NAME":"ONEWEB-0662","OBJECT_ID":"2023-029AC","EPOCH":"2026-03-13T14:13:10.398144","MEAN_MOTION":13.14501934,"ECCENTRICITY":0.0001577,"INCLINATION":87.8971,"RA_OF_ASC_NODE":308.8352,"ARG_OF_PERICENTER":94.5757,"MEAN_ANOMALY":265.5553,"EPHEMERIS_TYPE":0,"CLASSIFICATION_TYPE":"U","NORAD_CAT_ID":55822,"ELEMENT_SET_NO":999,"REV_AT_EPOCH":14687,"BSTAR":-0.00043081289,"MEAN_MOTION_DOT":-1.47e-6,"MEAN_MOTION_DDOT":0},{"OBJECT_NAME":"ONEWEB-0663","OBJECT_ID":"2023-029AD","EPOCH":"2026-03-13T15:21:25.256160","MEAN_MOTION":13.20884387,"ECCENTRICITY":0.00049423,"INCLINATION":87.9185,"RA_OF_ASC_NODE":293.5767,"ARG_OF_PERICENTER":17.701,"MEAN_ANOMALY":342.4295,"EPHEMERIS_TYPE":0,"CLASSIFICATION_TYPE":"U","NORAD_CAT_ID":55823,"ELEMENT_SET_NO":999,"REV_AT_EPOCH":14853,"BSTAR":-0.006752306,"MEAN_MOTION_DOT":-2.736e-5,"MEAN_MOTION_DDOT":0},{"OBJECT_NAME":"ONEWEB-0664","OBJECT_ID":"2023-029AE","EPOCH":"2026-03-13T14:04:23.420352","MEAN_MOTION":13.20769605,"ECCENTRICITY":0.00012131,"INCLINATION":87.9157,"RA_OF_ASC_NODE":293.5822,"ARG_OF_PERICENTER":96.1393,"MEAN_ANOMALY":263.9878,"EPHEMERIS_TYPE":0,"CLASSIFICATION_TYPE":"U","NORAD_CAT_ID":55824,"ELEMENT_SET_NO":999,"REV_AT_EPOCH":14852,"BSTAR":-0.00015585774,"MEAN_MOTION_DOT":-5.0e-7,"MEAN_MOTION_DDOT":0},{"OBJECT_NAME":"ONEWEB-0665","OBJECT_ID":"2023-029AF","EPOCH":"2026-03-13T15:08:00.091968","MEAN_MOTION":13.14502822,"ECCENTRICITY":0.0001668,"INCLINATION":87.8972,"RA_OF_ASC_NODE":308.8006,"ARG_OF_PERICENTER":94.2212,"MEAN_ANOMALY":265.9108,"EPHEMERIS_TYPE":0,"CLASSIFICATION_TYPE":"U","NORAD_CAT_ID":55825,"ELEMENT_SET_NO":999,"REV_AT_EPOCH":14685,"BSTAR":0.00027726626,"MEAN_MOTION_DOT":1.16e-6,"MEAN_MOTION_DDOT":0},{"OBJECT_NAME":"ONEWEB-0666","OBJECT_ID":"2023-029AG","EPOCH":"2026-03-13T13:55:18.839424","MEAN_MOTION":13.20770257,"ECCENTRICITY":0.00019139,"INCLINATION":87.9156,"RA_OF_ASC_NODE":293.5733,"ARG_OF_PERICENTER":64.3621,"MEAN_ANOMALY":295.771,"EPHEMERIS_TYPE":0,"CLASSIFICATION_TYPE":"U","NORAD_CAT_ID":55826,"ELEMENT_SET_NO":999,"REV_AT_EPOCH":14853,"BSTAR":-9.6154241e-5,"MEAN_MOTION_DOT":-2.6e-7,"MEAN_MOTION_DDOT":0},{"OBJECT_NAME":"ONEWEB-0667","OBJECT_ID":"2023-029AH","EPOCH":"2026-03-13T13:46:13.860192","MEAN_MOTION":13.20770048,"ECCENTRICITY":0.00015593,"INCLINATION":87.9172,"RA_OF_ASC_NODE":293.5162,"ARG_OF_PERICENTER":92.0412,"MEAN_ANOMALY":268.09,"EPHEMERIS_TYPE":0,"CLASSIFICATION_TYPE":"U","NORAD_CAT_ID":55827,"ELEMENT_SET_NO":999,"REV_AT_EPOCH":14852,"BSTAR":-0.00012031416,"MEAN_MOTION_DOT":-3.6e-7,"MEAN_MOTION_DDOT":0},{"OBJECT_NAME":"ONEWEB-0669","OBJECT_ID":"2023-029AJ","EPOCH":"2026-03-13T13:39:24.618816","MEAN_MOTION":13.20770307,"ECCENTRICITY":0.0001128,"INCLINATION":87.9158,"RA_OF_ASC_NODE":293.5413,"ARG_OF_PERICENTER":71.6951,"MEAN_ANOMALY":288.4305,"EPHEMERIS_TYPE":0,"CLASSIFICATION_TYPE":"U","NORAD_CAT_ID":55828,"ELEMENT_SET_NO":999,"REV_AT_EPOCH":14852,"BSTAR":0.00016210968,"MEAN_MOTION_DOT":7.9e-7,"MEAN_MOTION_DDOT":0},{"OBJECT_NAME":"ONEWEB-0670","OBJECT_ID":"2023-029AK","EPOCH":"2026-03-13T14:36:01.273248","MEAN_MOTION":13.14502905,"ECCENTRICITY":0.00013165,"INCLINATION":87.8973,"RA_OF_ASC_NODE":308.8238,"ARG_OF_PERICENTER":92.9771,"MEAN_ANOMALY":267.1509,"EPHEMERIS_TYPE":0,"CLASSIFICATION_TYPE":"U","NORAD_CAT_ID":55829,"ELEMENT_SET_NO":999,"REV_AT_EPOCH":14687,"BSTAR":-0.00038520894,"MEAN_MOTION_DOT":-1.3e-6,"MEAN_MOTION_DDOT":0},{"OBJECT_NAME":"ONEWEB-0671","OBJECT_ID":"2023-029AL","EPOCH":"2026-03-13T05:32:44.954304","MEAN_MOTION":13.19725783,"ECCENTRICITY":0.000168,"INCLINATION":87.9224,"RA_OF_ASC_NODE":324.0984,"ARG_OF_PERICENTER":83.5308,"MEAN_ANOMALY":276.6016,"EPHEMERIS_TYPE":0,"CLASSIFICATION_TYPE":"U","NORAD_CAT_ID":55830,"ELEMENT_SET_NO":999,"REV_AT_EPOCH":14624,"BSTAR":0.00021739837,"MEAN_MOTION_DOT":1.0e-6,"MEAN_MOTION_DDOT":0},{"OBJECT_NAME":"ONEWEB-0672","OBJECT_ID":"2023-029AM","EPOCH":"2026-03-13T13:32:38.397120","MEAN_MOTION":13.20750612,"ECCENTRICITY":0.00015219,"INCLINATION":87.9162,"RA_OF_ASC_NODE":293.5286,"ARG_OF_PERICENTER":82.6878,"MEAN_ANOMALY":277.4428,"EPHEMERIS_TYPE":0,"CLASSIFICATION_TYPE":"U","NORAD_CAT_ID":55831,"ELEMENT_SET_NO":999,"REV_AT_EPOCH":14852,"BSTAR":0.019369395,"MEAN_MOTION_DOT":7.893e-5,"MEAN_MOTION_DDOT":0},{"OBJECT_NAME":"ONEWEB-0673","OBJECT_ID":"2023-029AN","EPOCH":"2026-03-13T04:59:45.223584","MEAN_MOTION":13.19724764,"ECCENTRICITY":0.00016132,"INCLINATION":87.9227,"RA_OF_ASC_NODE":324.0888,"ARG_OF_PERICENTER":83.6972,"MEAN_ANOMALY":276.4345,"EPHEMERIS_TYPE":0,"CLASSIFICATION_TYPE":"U","NORAD_CAT_ID":55832,"ELEMENT_SET_NO":999,"REV_AT_EPOCH":14624,"BSTAR":0.00021702111,"MEAN_MOTION_DOT":1.0e-6,"MEAN_MOTION_DDOT":0},{"OBJECT_NAME":"ONEWEB-0674","OBJECT_ID":"2023-029AP","EPOCH":"2026-03-13T13:50:21.202656","MEAN_MOTION":13.14502255,"ECCENTRICITY":0.00012625,"INCLINATION":87.8976,"RA_OF_ASC_NODE":308.8065,"ARG_OF_PERICENTER":85.7811,"MEAN_ANOMALY":274.3463,"EPHEMERIS_TYPE":0,"CLASSIFICATION_TYPE":"U","NORAD_CAT_ID":55833,"ELEMENT_SET_NO":999,"REV_AT_EPOCH":14685,"BSTAR":0.00022725264,"MEAN_MOTION_DOT":9.7e-7,"MEAN_MOTION_DDOT":0},{"OBJECT_NAME":"ONEWEB-0675","OBJECT_ID":"2023-029AQ","EPOCH":"2026-03-13T05:21:22.701888","MEAN_MOTION":13.19725429,"ECCENTRICITY":0.00019845,"INCLINATION":87.9219,"RA_OF_ASC_NODE":324.1017,"ARG_OF_PERICENTER":73.6987,"MEAN_ANOMALY":286.4364,"EPHEMERIS_TYPE":0,"CLASSIFICATION_TYPE":"U","NORAD_CAT_ID":55834,"ELEMENT_SET_NO":999,"REV_AT_EPOCH":14626,"BSTAR":8.5876365e-5,"MEAN_MOTION_DOT":4.7e-7,"MEAN_MOTION_DDOT":0},{"OBJECT_NAME":"ONEWEB-0720","OBJECT_ID":"2023-029AR","EPOCH":"2026-03-13T05:10:00.975648","MEAN_MOTION":13.19725123,"ECCENTRICITY":0.00018534,"INCLINATION":87.9224,"RA_OF_ASC_NODE":324.1038,"ARG_OF_PERICENTER":90.5106,"MEAN_ANOMALY":269.6239,"EPHEMERIS_TYPE":0,"CLASSIFICATION_TYPE":"U","NORAD_CAT_ID":55835,"ELEMENT_SET_NO":999,"REV_AT_EPOCH":14618,"BSTAR":1.8836504e-5,"MEAN_MOTION_DOT":2.0e-7,"MEAN_MOTION_DDOT":0},{"OBJECT_NAME":"ONEWEB-0537","OBJECT_ID":"2023-043A","EPOCH":"2026-03-13T10:31:19.465536","MEAN_MOTION":13.16593097,"ECCENTRICITY":0.00016548,"INCLINATION":87.9009,"RA_OF_ASC_NODE":247.8135,"ARG_OF_PERICENTER":89.3307,"MEAN_ANOMALY":270.8013,"EPHEMERIS_TYPE":0,"CLASSIFICATION_TYPE":"U","NORAD_CAT_ID":56046,"ELEMENT_SET_NO":999,"REV_AT_EPOCH":14636,"BSTAR":-7.363681e-5,"MEAN_MOTION_DOT":-1.5e-7,"MEAN_MOTION_DDOT":0},{"OBJECT_NAME":"ONEWEB-0538","OBJECT_ID":"2023-043B","EPOCH":"2026-03-13T10:22:13.052928","MEAN_MOTION":13.16594382,"ECCENTRICITY":0.00019187,"INCLINATION":87.9005,"RA_OF_ASC_NODE":247.8171,"ARG_OF_PERICENTER":93.8414,"MEAN_ANOMALY":266.2937,"EPHEMERIS_TYPE":0,"CLASSIFICATION_TYPE":"U","NORAD_CAT_ID":56047,"ELEMENT_SET_NO":999,"REV_AT_EPOCH":14637,"BSTAR":-4.2658282e-5,"MEAN_MOTION_DOT":-3.0e-8,"MEAN_MOTION_DDOT":0}]
