ONEWEB-0662             
1 55822U 23029AC  26072.59248146 -.00000147  00000+0 -43081-3 0  9996
2 55822  87.8971 308.8352 0001577  94.5757 265.5553 13.14501934146878
ONEWEB-0663             
1 55823U 23029AD  26072.63987565 -.00002736  00000+0 -67523-2 0  9999
2 55823  87.9185 293.5767 0004942  17.7010 342.4295 13.20884387148531
ONEWEB-0664             
1 55824U 23029AE  26072.58638218 -.00000050  00000+0 -15586-3 0  9992
2 55824  87.9157 293.5822 0001213  96.1393 263.9878 13.20769605148524
ONEWEB-0665             
1 55825U 23029AF  26072.63055662  .00000116  00000+0  27727-3 0  9996
2 55825  87.8972 308.8006 0001668  94.2212 265.9108 13.14502822146857
ONEWEB-0666             
1 55826U 23029AG  26072.58007916 -.00000026  00000+0 -96154-4 0  9993
2 55826  87.9156 293.5733 0001913  64.3621 295.7710 13.20770257148538
ONEWEB-0667             
1 55827U 23029AH  26072.57377153 -.00000036  00000+0 -12031-3 0  9998
2 55827  87.9172 293.5162 0001559  92.0412 268.0900 13.20770048148526
ONEWEB-0669             
1 55828U 23029AJ  26072.56903494  .00000079  00000+0  16211-3 0  9990
2 55828  87.9158 293.5413 0001128  71.6951 288.4305 13.20770307148526
ONEWEB-0670             
1 55829U 23029AK  26072.60834807 -.00000130  00000+0 -38521-3 0  9995
2 55829  87.8973 308.8238 0001316  92.9771 267.1509 13.14502905146877
ONEWEB-0671             
1 55830U 23029AL  26072.23107586  .00000100  00000+0  21740-3 0  9993
2 55830  87.9224 324.0984 0001680  83.5308 276.6016 13.19725783146248
ONEWEB-0672             
1 55831U 23029AM  26072.56433330  .00007893  00000+0  19369-1 0  9997
2 55831  87.9162 293.5286 0001521  82.6878 277.4428 13.20750612148521
ONEWEB-0673             
1 55832U 23029AN  26072.20816231  .00000100  00000+0  21702-3 0  9994
2 55832  87.9227 324.0888 0001613  83.6972 276.4345 13.19724764146241
ONEWEB-0674             
1 55833U 23029AP  26072.57663429  .00000097  00000+0  22725-3 0  9995
2 55833  87.8976 308.8065 0001262  85.7811 274.3463 13.14502255146853
ONEWEB-0675             
1 55834U 23029AQ  26072.22317942  .00000047  00000+0  85876-4 0  9996
2 55834  87.9219 324.1017 0001984  73.6987 286.4364 13.19725429146268
ONEWEB-0720             
1 55835U 23029AR  26072.21528907  .00000020  00000+0  18837-4 0  9995
2 55835  87.9224 324.1038 0001853  90.5106 269.6239 13.19725123146180
ONEWEB-0537             
1 56046U 23043A   26072.43841974 -.00000015  00000+0 -73637-4 0  9997
2 56046  87.9009 247.8135 0001654  89.3307 270.8013 13.16593097146367
ONEWEB-0538             
1 56047U 23043B   26072.43209552 -.00000003  00000+0 -42658-4 0  9994
2 56047  87.9005 247.8171 0001918  93.8414 266.2937 13.16594382146379
